{"type": "FeatureCollection", "features": [ {"type": "Feature", "properties": {"norad_id": 66052, "name": "HRC MONOBLOCK CAMERA", "group": "stations", "lat": -33.737399626704004, "lon": 51.349460794047175, "alt_km": 405.8499101601901, "timestamp": "2025-12-24T09:46:29.749632+00:00", "meta": {"OBJECT_NAME": "HRC MONOBLOCK CAMERA", "OBJECT_ID": "1998-067XR", "EPOCH": "2025-12-23T23:10:15.977280", "MEAN_MOTION": 15.54901889, "ECCENTRICITY": 0.0002152, "INCLINATION": 51.6306, "RA_OF_ASC_NODE": 85.5033, "ARG_OF_PERICENTER": 238.968, "MEAN_ANOMALY": 121.11, "EPHEMERIS_TYPE": 0, "CLASSIFICATION_TYPE": "U", "NORAD_CAT_ID": 66052, "ELEMENT_SET_NO": 999, "REV_AT_EPOCH": 1058, "BSTAR": 0.0005004, "MEAN_MOTION_DOT": 0.00033738, "MEAN_MOTION_DDOT": 0}, "tle": {"line1": "1 66052U 98067XR  25357.96546270  .00033738  00000+0  50040-3 0  9995", "line2": "2 66052  51.6306  85.5033 0002152 238.9680 121.1100 15.54901889 10582"}}, "geometry": {"type": "Point", "coordinates": [51.349460794047175, -33.737399626704004]}}, {"type": "Feature", "properties": {"norad_id": 66174, "name": "HTV-X1", "group": "stations", "lat": 1.9104642131591458, "lon": 86.21000699283995, "alt_km": 417.0599266813433, "timestamp": "2025-12-24T09:46:29.749643+00:00", "meta": {"OBJECT_NAME": "HTV-X1", "OBJECT_ID": "2025-241A", "EPOCH": "2025-12-23T18:17:18.636000", "MEAN_MOTION": 15.49761422, "ECCENTRICITY": 0.00031718, "INCLINATION": 51.6321, "RA_OF_ASC_NODE": 87.8933, "ARG_OF_PERICENTER": 292.1344, "MEAN_ANOMALY": 67.9308, "EPHEMERIS_TYPE": 0, "CLASSIFICATION_TYPE": "U", "NORAD_CAT_ID": 66174, "ELEMENT_SET_NO": 999, "REV_AT_EPOCH": 51, "BSTAR": 0.00020966669, "MEAN_MOTION_DOT": 0.00011429, "MEAN_MOTION_DDOT": 0}, "tle": {"line1": "1 66174U 25241A   25357.76202125  .00011429  00000+0  20967-3 0  9998", "line2": "2 66174  51.6321  87.8933 0003171 292.1344  67.9308 15.49761422   519"}}, "geometry": {"type": "Point", "coordinates": [86.21000699283995, 1.9104642131591458]}}, {"type": "Feature", "properties": {"norad_id": 66515, "name": "SZ-21 MODULE", "group": "stations", "lat": -40.1515622209621, "lon": -162.41690197432843, "alt_km": 380.5500165381136, "timestamp": "2025-12-24T09:46:29.749652+00:00", "meta": {"OBJECT_NAME": "SZ-21 MODULE", "OBJECT_ID": "2025-246C", "EPOCH": "2025-12-23T06:36:43.308864", "MEAN_MOTION": 15.6302066, "ECCENTRICITY": 0.00050381, "INCLINATION": 41.4773, "RA_OF_ASC_NODE": 311.7518, "ARG_OF_PERICENTER": 316.6622, "MEAN_ANOMALY": 43.3822, "EPHEMERIS_TYPE": 0, "CLASSIFICATION_TYPE": "U", "NORAD_CAT_ID": 66515, "ELEMENT_SET_NO": 999, "REV_AT_EPOCH": 609, "BSTAR": 0.000303255, "MEAN_MOTION_DOT": 0.00028121, "MEAN_MOTION_DDOT": 0}, "tle": {"line1": "1 66515U 25246C   25357.27550126  .00028121  00000+0  30326-3 0  9992", "line2": "2 66515  41.4773 311.7518 0005038 316.6622  43.3822 15.63020660  6095"}}, "geometry": {"type": "Point", "coordinates": [-162.41690197432843, -40.1515622209621]}}, {"type": "Feature", "properties": {"norad_id": 66645, "name": "SHENZHOU-22", "group": "stations", "lat": -17.57604145558736, "lon": 146.86787268715958, "alt_km": 388.7623125931905, "timestamp": "2025-12-24T09:46:29.749663+00:00", "meta": {"OBJECT_NAME": "SHENZHOU-22", "OBJECT_ID": "2025-272A", "EPOCH": "2025-12-23T22:08:03.098976", "MEAN_MOTION": 15.5961343, "ECCENTRICITY": 0.00080636, "INCLINATION": 41.4684, "RA_OF_ASC_NODE": 308.7959, "ARG_OF_PERICENTER": 129.7983, "MEAN_ANOMALY": 230.3567, "EPHEMERIS_TYPE": 0, "CLASSIFICATION_TYPE": "U", "NORAD_CAT_ID": 66645, "ELEMENT_SET_NO": 999, "REV_AT_EPOCH": 26550, "BSTAR": 0.00017429265, "MEAN_MOTION_DOT": 0.0001399, "MEAN_MOTION_DDOT": 0}, "tle": {"line1": "1 66645U 25272A   25357.92225809  .00013990  00000+0  17429-3 0  9991", "line2": "2 66645  41.4684 308.7959 0008063 129.7983 230.3567 15.59613430265504"}}, "geometry": {"type": "Point", "coordinates": [146.86787268715958, -17.57604145558736]}}, {"type": "Feature", "properties": {"norad_id": 66664, "name": "SOYUZ-MS 28", "group": "stations", "lat": 1.910474060425767, "lon": 86.21001480356428, "alt_km": 417.05967116770444, "timestamp": "2025-12-24T09:46:29.749673+00:00", "meta": {"OBJECT_NAME": "SOYUZ-MS 28", "OBJECT_ID": "2025-275A", "EPOCH": "2025-12-23T18:17:18.636000", "MEAN_MOTION": 15.49761422, "ECCENTRICITY": 0.0003172, "INCLINATION": 51.6321, "RA_OF_ASC_NODE": 87.8933, "ARG_OF_PERICENTER": 292.1344, "MEAN_ANOMALY": 67.9308, "EPHEMERIS_TYPE": 0, "CLASSIFICATION_TYPE": "U", "NORAD_CAT_ID": 66664, "ELEMENT_SET_NO": 999, "REV_AT_EPOCH": 415, "BSTAR": 0.00020967, "MEAN_MOTION_DOT": 0.00011429, "MEAN_MOTION_DDOT": 0}, "tle": {"line1": "1 66664U 25275A   25357.76202125  .00011429  00000+0  20967-3 0  9999", "line2": "2 66664  51.6321  87.8933 0003172 292.1344  67.9308 15.49761422  4158"}}, "geometry": {"type": "Point", "coordinates": [86.21001480356428, 1.910474060425767]}}, {"type": "Feature", "properties": {"norad_id": 66906, "name": "1998-067XS", "group": "stations", "lat": 51.12153509655291, "lon": 163.82851451041475, "alt_km": 408.12853469928905, "timestamp": "2025-12-24T09:46:29.749683+00:00", "meta": {"OBJECT_NAME": "1998-067XS", "OBJECT_ID": "1998-067XS", "EPOCH": "2025-12-23T13:19:00.111360", "MEAN_MOTION": 15.51136039, "ECCENTRICITY": 0.00028154, "INCLINATION": 51.6316, "RA_OF_ASC_NODE": 88.7613, "ARG_OF_PERICENTER": 256.8779, "MEAN_ANOMALY": 103.1896, "EPHEMERIS_TYPE": 0, "CLASSIFICATION_TYPE": "U", "NORAD_CAT_ID": 66906, "ELEMENT_SET_NO": 999, "REV_AT_EPOCH": 329, "BSTAR": 0.00048512679, "MEAN_MOTION_DOT": 0.0002847, "MEAN_MOTION_DDOT": 0}, "tle": {"line1": "1 66906U 98067XS  25357.55486240  .00028470  00000+0  48513-3 0  9997", "line2": "2 66906  51.6316  88.7613 0002815 256.8779 103.1896 15.51136039  3290"}}, "geometry": {"type": "Point", "coordinates": [163.82851451041475, 51.12153509655291]}}, {"type": "Feature", "properties": {"norad_id": 66907, "name": "1998-067XT", "group": "stations", "lat": 21.210787818934676, "lon": -113.52346470097716, "alt_km": 408.0617175220259, "timestamp": "2025-12-24T09:46:29.749693+00:00", "meta": {"OBJECT_NAME": "1998-067XT", "OBJECT_ID": "1998-067XT", "EPOCH": "2025-12-23T11:29:49.841376", "MEAN_MOTION": 15.52745506, "ECCENTRICITY": 0.0003882, "INCLINATION": 51.6313, "RA_OF_ASC_NODE": 89.0045, "ARG_OF_PERICENTER": 291.7662, "MEAN_ANOMALY": 68.2915, "EPHEMERIS_TYPE": 0, "CLASSIFICATION_TYPE": "U", "NORAD_CAT_ID": 66907, "ELEMENT_SET_NO": 999, "REV_AT_EPOCH": 328, "BSTAR": 0.0010348952, "MEAN_MOTION_DOT": 0.00065231, "MEAN_MOTION_DDOT": 0}, "tle": {"line1": "1 66907U 98067XT  25357.47904909  .00065231  00000+0  10349-2 0  9997", "line2": "2 66907  51.6313  89.0045 0003882 291.7662  68.2915 15.52745506  3283"}}, "geometry": {"type": "Point", "coordinates": [-113.52346470097716, 21.210787818934676]}}, {"type": "Feature", "properties": {"norad_id": 66908, "name": "1998-067XU", "group": "stations", "lat": 16.81453458978944, "lon": -109.4812979955216, "alt_km": 408.2673936143474, "timestamp": "2025-12-24T09:46:29.749704+00:00", "meta": {"OBJECT_NAME": "1998-067XU", "OBJECT_ID": "1998-067XU", "EPOCH": "2025-12-23T11:28:24.726144", "MEAN_MOTION": 15.52842233, "ECCENTRICITY": 0.00039209, "INCLINATION": 51.6312, "RA_OF_ASC_NODE": 88.9976, "ARG_OF_PERICENTER": 289.9814, "MEAN_ANOMALY": 70.0754, "EPHEMERIS_TYPE": 0, "CLASSIFICATION_TYPE": "U", "NORAD_CAT_ID": 66908, "ELEMENT_SET_NO": 999, "REV_AT_EPOCH": 328, "BSTAR": 0.0010206619, "MEAN_MOTION_DOT": 0.00064549, "MEAN_MOTION_DDOT": 0}, "tle": {"line1": "1 66908U 98067XU  25357.47806396  .00064549  00000+0  10207-2 0  9993", "line2": "2 66908  51.6312  88.9976 0003920 289.9814  70.0754 15.52842233  3282"}}, "geometry": {"type": "Point", "coordinates": [-109.4812979955216, 16.81453458978944]}}, {"type": "Feature", "properties": {"norad_id": 66909, "name": "SILVERSAT", "group": "stations", "lat": 10.372555337423337, "lon": -103.98453113486322, "alt_km": 408.4656950952667, "timestamp": "2025-12-24T09:46:29.749744+00:00", "meta": {"OBJECT_NAME": "SILVERSAT", "OBJECT_ID": "1998-067XV", "EPOCH": "2025-12-23T06:48:27.239040", "MEAN_MOTION": 15.53013948, "ECCENTRICITY": 0.00038718, "INCLINATION": 51.6305, "RA_OF_ASC_NODE": 89.9502, "ARG_OF_PERICENTER": 293.696, "MEAN_ANOMALY": 66.3623, "EPHEMERIS_TYPE": 0, "CLASSIFICATION_TYPE": "U", "NORAD_CAT_ID": 66909, "ELEMENT_SET_NO": 999, "REV_AT_EPOCH": 325, "BSTAR": 0.0011375182, "MEAN_MOTION_DOT": 0.00072516, "MEAN_MOTION_DDOT": 0}, "tle": {"line1": "1 66909U 98067XV  25357.28364860  .00072516  00000+0  11375-2 0  9998", "line2": "2 66909  51.6305  89.9502 0003871 293.6960  66.3623 15.53013948  3254"}}, "geometry": {"type": "Point", "coordinates": [-103.98453113486322, 10.372555337423337]}}, {"type": "Feature", "properties": {"norad_id": 66910, "name": "1998-067XW", "group": "stations", "lat": 2.984866142344613, "lon": -98.03403705167803, "alt_km": 408.14197289897584, "timestamp": "2025-12-24T09:46:29.749756+00:00", "meta": {"OBJECT_NAME": "1998-067XW", "OBJECT_ID": "1998-067XW", "EPOCH": "2025-12-23T11:23:56.481792", "MEAN_MOTION": 15.5298943, "ECCENTRICITY": 0.00039882, "INCLINATION": 51.6309, "RA_OF_ASC_NODE": 88.9767, "ARG_OF_PERICENTER": 265.4983, "MEAN_ANOMALY": 94.5551, "EPHEMERIS_TYPE": 0, "CLASSIFICATION_TYPE": "U", "NORAD_CAT_ID": 66910, "ELEMENT_SET_NO": 999, "REV_AT_EPOCH": 328, "BSTAR": 0.00097986031, "MEAN_MOTION_DOT": 0.00062264, "MEAN_MOTION_DDOT": 0}, "tle": {"line1": "1 66910U 98067XW  25357.47495928  .00062264  00000+0  97986-3 0  9993", "line2": "2 66910  51.6309  88.9767 0003988 265.4983  94.5551 15.52989430  3286"}}, "geometry": {"type": "Point", "coordinates": [-98.03403705167803, 2.984866142344613]}}]}